OBJECT_NAME,OBJECT_ID,EPOCH,MEAN_MOTION,ECCENTRICITY,INCLINATION,RA_OF_ASC_NODE,ARG_OF_PERICENTER,MEAN_ANOMALY,EPHEMERIS_TYPE,CLASSIFICATION_TYPE,NORAD_CAT_ID,ELEMENT_SET_NO,REV_AT_EPOCH,BSTAR,MEAN_MOTION_DOT,MEAN_MOTION_DDOT,SEMIMAJOR_AXIS,DEBRIS_TYPE,ORBITAL_PERIOD,ORBITAL_PERIOD_HOURS,ALTITUDE,PERIGEE,APOGEE
FENGYUN 1C DEB,1999-025BX,2024-12-31T17:09:44.737632,14.04137656,0.0073435,98.796,5.2155,63.1753,351.936,0,U,29781,999,91785,0.0023106,3.71e-05,0.0,7257.639358540998,FENGYUN 1C,6153.246265619246,1.7092350737831237,886.6393585409978,7204.342883911552,7310.935833170443
FENGYUN 1C DEB,1999-025BY,2024-12-31T15:06:46.244160,14.09528553,0.0055811,99.1239,49.4624,95.2602,68.0829,0,U,29782,999,91791,0.0034528,6.085e-05,0.0,7239.122449269971,FENGYUN 1C,6129.7124984153215,1.7026979162264781,868.1224492699712,7198.720182968351,7279.524715571591
FENGYUN 1C DEB,1999-025CA,2024-12-31T13:38:06.179712,14.29271496,0.0060452,98.9526,269.8921,223.2552,258.6814,0,U,29784,999,93415,0.0016116,4.135e-05,0.0,7172.303954682739,FENGYUN 1C,6045.04099632402,1.67917805453445,801.3039546827385,7128.945942815891,7215.661966549586
FENGYUN 1C DEB,1999-025CC,2024-12-31T19:44:03.855840,14.08781038,0.0077885,98.7611,28.11,199.5717,335.6939,0,U,29786,999,92289,0.00058901,1.002e-05,0.0,7241.68299583729,FENGYUN 1C,6132.964992532332,1.7036013868145368,870.68299583729,7185.281147824211,7298.084843850369
FENGYUN 1C DEB,1999-025CE,2024-12-30T22:32:56.071104,14.22458135,0.0044315,98.8073,71.2499,115.0106,58.8317,0,U,29788,999,92427,0.004346,9.753e-05,0.0,7195.1885497048615,FENGYUN 1C,6073.99583552409,1.6872210654233581,824.1885497048615,7163.303071646844,7227.074027762878
FENGYUN 1C DEB,1999-025CF,2024-12-31T19:11:18.951360,13.52952993,0.0299551,99.4565,198.4548,71.1917,45.6926,0,U,29789,999,88307,0.0030056,2.621e-05,0.0,7439.550614887724,FENGYUN 1C,6386.034720274542,1.7738985334095951,1068.550614887724,7216.6981322637,7662.403097511748
FENGYUN 1C DEB,1999-025CG,2024-12-31T19:43:02.771040,14.31225023,0.0078667,99.1157,336.8222,100.0721,260.9347,0,U,29790,999,93575,0.0011031,2.969e-05,0.0,7165.775990386095,FENGYUN 1C,6036.789917274498,1.676886088131805,794.7759903860951,7109.404980402524,7222.147000369665
FENGYUN 1C DEB,1999-025CH,2024-12-31T20:36:53.547840,14.50866505,0.0048153,99.0206,333.7651,26.9464,354.7964,0,U,29791,999,93816,0.0062567,0.00025086,0.0,7100.9568169777685,FENGYUN 1C,5955.065306437247,1.6541848073436798,729.9568169777685,7066.763579616976,7135.150054338561
FENGYUN 1C DEB,1999-025CJ,2024-12-31T20:00:14.096736,14.13012702,0.0049107,98.7876,57.6927,299.5721,60.0562,0,U,29792,999,92050,0.0038813,7.285e-05,0.0,7227.217598550913,FENGYUN 1C,6114.598103731244,1.698499473258679,856.217598550913,7191.726901089709,7262.708296012116
FENGYUN 1C DEB,1999-025CK,2024-12-30T02:22:37.081920,13.99540583,0.0141745,98.3734,207.1476,238.8528,249.5376,0,U,29793,999,91283,0.0035901,5.675e-05,0.0,7273.523456453068,FENGYUN 1C,6173.457842627892,1.7148494007299702,902.5234564530683,7170.424898219574,7376.622014686563
FENGYUN 1C DEB,1999-025CL,2024-12-31T07:34:19.359840,14.07656598,0.0159405,98.1767,190.5511,314.5115,221.8056,0,U,29794,999,91971,0.0019598,3.681e-05,0.0,7245.53893358857,FENGYUN 1C,6137.864022001596,1.7049622283337766,874.5389335885702,7130.041420217702,7361.036446959438
FENGYUN 1C DEB,1999-025CM,2024-12-31T20:53:45.378240,13.92683488,0.0112851,98.8196,145.5362,144.6687,7.6525,0,U,29795,999,91250,0.00064413,8.36e-06,0.0,7297.3787942328245,FENGYUN 1C,6203.853827982889,1.723292729995247,926.3787942328245,7215.027144802028,7379.730443663621
FENGYUN 1C DEB,1999-025CN,2024-12-31T09:25:41.464128,14.11122303,0.005461,98.902,55.6452,167.031,204.623,0,U,29796,999,92174,0.0020243,3.654e-05,0.0,7233.670748769944,FENGYUN 1C,6122.789477445714,1.7007748548460315,862.6707487699441,7194.167672810911,7273.173824728976
FENGYUN 1C DEB,1999-025CQ,2024-12-31T09:15:20.287872,13.97784256,0.0115869,99.3203,59.0405,140.294,232.3631,0,U,29798,999,91083,0.0035793,5.317e-05,0.0,7279.615007811731,FENGYUN 1C,6181.214841353429,1.7170041225981747,908.6150078117307,7195.266836677717,7363.963178945744
FENGYUN 1C DEB,1999-025CS,2024-12-28T03:27:10.704096,13.95929082,0.0139777,98.3115,52.2161,130.4182,293.3637,0,U,29800,999,90694,0.003474,5.125e-05,0.0,7286.0632642026485,FENGYUN 1C,6189.429606136225,1.7192860017045068,915.0632642026485,7184.220857714603,7387.905670690695
FENGYUN 1C DEB,1999-025CT,2024-12-31T16:33:08.274240,14.35363888,0.0104065,98.8275,254.3373,206.744,170.9872,0,U,29801,999,93976,0.00055155,1.634e-05,0.0,7151.994374359217,FENGYUN 1C,6019.382862025411,1.6720507950070584,780.9943743592166,7077.567144902448,7226.421603815986
FENGYUN 1C DEB,1999-025CU,2024-12-31T17:52:51.589920,14.50428785,0.0046091,98.6188,98.3316,320.1926,202.7121,0,U,29802,999,93436,0.0072133,0.00028643,0.0,7102.385394298699,FENGYUN 1C,5956.862465465591,1.6546840181848865,731.3853942986989,7069.649789777836,7135.120998819561
FENGYUN 1C DEB,1999-025CW,2024-12-31T21:34:12.183168,14.04189397,0.0098046,98.816,19.4016,188.9495,290.981,0,U,29804,999,92040,0.00010281,1.28e-06,0.0,7257.46107308319,FENGYUN 1C,6153.019533302573,1.7091720925840481,886.4610730831901,7186.304570246039,7328.617575920342
FENGYUN 1C DEB,1999-025CX,2024-12-31T19:35:38.016672,13.7250353,0.0189115,99.5045,55.6541,49.6841,312.066,0,U,29805,999,89957,0.00036918,3.4e-06,0.0,7368.733691415888,FENGYUN 1C,6295.069265284412,1.7486303514678923,997.7336914158877,7229.379884210676,7508.087498621099
FENGYUN 1C DEB,1999-025CY,2024-12-31T20:39:52.102944,14.11101408,0.002885,98.7345,26.2176,153.6876,21.6596,0,U,29806,999,92259,0.001684,3.001e-05,0.0,7233.742157376214,FENGYUN 1C,6122.880141153796,1.7008000392093878,862.742157376214,7212.872811252183,7254.611503500245
FENGYUN 1C DEB,1999-025CZ,2024-12-31T19:50:20.100192,14.0822619,0.0079716,98.7588,15.4577,227.4236,132.0189,0,U,29807,999,92225,0.00079929,1.362e-05,0.0,7243.585043272316,FENGYUN 1C,6135.381410707438,1.7042726140853994,872.5850432723164,7185.842080741367,7301.328005803267
