FENGYUN 1C DEB          
1 29781U 99025BX  24366.71510113  .00003710  00000+0  23106-2 0  9996
2 29781  98.7960   5.2155 0073435  63.1753 351.9360 14.04137656917857
FENGYUN 1C DEB          
1 29782U 99025BY  24366.62970190  .00006085  00000+0  34528-2 0  9990
2 29782  99.1239  49.4624 0055811  95.2602  68.0829 14.09528553917918
FENGYUN 1C DEB          
1 29784U 99025CA  24366.56812708  .00004135  00000+0  16116-2 0  9992
2 29784  98.9526 269.8921 0060452 223.2552 258.6814 14.29271496934157
FENGYUN 1C DEB          
1 29786U 99025CC  24366.82226685  .00001002  00000+0  58901-3 0  9995
2 29786  98.7611  28.1100 0077885 199.5717 335.6939 14.08781038922890
FENGYUN 1C DEB          
1 29788U 99025CE  24365.93953786  .00009753  00000+0  43460-2 0  9991
2 29788  98.8073  71.2499 0044315 115.0106  58.8317 14.22458135924275
FENGYUN 1C DEB          
1 29789U 99025CF  24366.79952490  .00002621  00000+0  30056-2 0  9992
2 29789  99.4565 198.4548 0299551  71.1917  45.6926 13.52952993883077
FENGYUN 1C DEB          
1 29790U 99025CG  24366.82155985  .00002969  00000+0  11031-2 0  9999
2 29790  99.1157 336.8222 0078667 100.0721 260.9347 14.31225023935755
FENGYUN 1C DEB          
1 29791U 99025CH  24366.85895310  .00025086  00000+0  62567-2 0  9991
2 29791  99.0206 333.7651 0048153  26.9464 354.7964 14.50866505938161
FENGYUN 1C DEB          
1 29792U 99025CJ  24366.83349649  .00007285  00000+0  38813-2 0  9997
2 29792  98.7876  57.6927 0049107 299.5721  60.0562 14.13012702920504
FENGYUN 1C DEB          
1 29793U 99025CK  24365.09904030  .00005675  00000+0  35901-2 0  9992
2 29793  98.3734 207.1476 0141745 238.8528 249.5376 13.99540583912837
FENGYUN 1C DEB          
1 29794U 99025CL  24366.31550185  .00003681  00000+0  19598-2 0  9996
2 29794  98.1767 190.5511 0159405 314.5115 221.8056 14.07656598919719
FENGYUN 1C DEB          
1 29795U 99025CM  24366.87066410  .00000836  00000+0  64413-3 0  9997
2 29795  98.8196 145.5362 0112851 144.6687   7.6525 13.92683488912509
FENGYUN 1C DEB          
1 29796U 99025CN  24366.39284102  .00003654  00000+0  20243-2 0  9998
2 29796  98.9020  55.6452 0054610 167.0310 204.6230 14.11122303921742
FENGYUN 1C DEB          
1 29798U 99025CQ  24366.38565148  .00005317  00000+0  35793-2 0  9995
2 29798  99.3203  59.0405 0115869 140.2940 232.3631 13.97784256910839
FENGYUN 1C DEB          
1 29800U 99025CS  24363.14387389  .00005125  00000+0  34740-2 0  9997
2 29800  98.3115  52.2161 0139777 130.4182 293.3637 13.95929082906947
FENGYUN 1C DEB          
1 29801U 99025CT  24366.68967910  .00001634  00000+0  55155-3 0  9999
2 29801  98.8275 254.3373 0104065 206.7440 170.9872 14.35363888939764
FENGYUN 1C DEB          
1 29802U 99025CU  24366.74504155  .00028643  00000+0  72133-2 0  9998
2 29802  98.6188  98.3316 0046091 320.1926 202.7121 14.50428785934360
FENGYUN 1C DEB          
1 29804U 99025CW  24366.89875212  .00000128  00000+0  10281-3 0  9996
2 29804  98.8160  19.4016 0098046 188.9495 290.9810 14.04189397920409
FENGYUN 1C DEB          
1 29805U 99025CX  24366.81641223  .00000340  00000+0  36918-3 0  9993
2 29805  99.5045  55.6541 0189115  49.6841 312.0660 13.72503530899576
FENGYUN 1C DEB          
1 29806U 99025CY  24366.86101971  .00003001  00000+0  16840-2 0  9998
2 29806  98.7345  26.2176 0028850 153.6876  21.6596 14.11101408922593
FENGYUN 1C DEB          
1 29807U 99025CZ  24366.82662153  .00001362  00000+0  79929-3 0  9995
2 29807  98.7588  15.4577 0079716 227.4236 132.0189 14.08226190922255
